{
  "type": "FeatureCollection",
  "features": [
    {
      "type": "Feature",
      "properties": {
        "norad_id": 30629,
        "name": "FENGYUN 1C DEB",
        "group": "fengyun-1c-debris",
        "lat": -1.4542058901097032,
        "lon": 80.39425439152107,
        "alt_km": 703.0058457900277,
        "timestamp": "2025-12-10T11:33:53.662928+00:00",
        "meta_object_name": "FENGYUN 1C DEB",
        "meta_object_id": "1999-025ANL",
        "meta_epoch": "2025-12-09T22:41:03.753312",
        "meta_mean_motion": 14.59440036,
        "meta_eccentricity": 0.0007712,
        "meta_inclination": 99.2513,
        "meta_ra_of_asc_node": 79.5595,
        "meta_arg_of_pericenter": 204.9246,
        "meta_mean_anomaly": 215.5303,
        "meta_ephemeris_type": 0,
        "meta_classification_type": "U",
        "meta_norad_cat_id": 30629,
        "meta_element_set_no": 999,
        "meta_rev_at_epoch": 97849,
        "meta_bstar": 0.0043302,
        "meta_mean_motion_dot": 0.0002054,
        "meta_mean_motion_ddot": 0,
        "tle_line1": "1 30629U 99025ANL 25343.94518233  .00020540  00000+0  43302-2 0  9991",
        "tle_line2": "2 30629  99.2513  79.5595 0007712 204.9246 215.5303 14.59440036978497"
      },
      "geometry": {
        "type": "Point",
        "coordinates": [
          80.39425439152107,
          -1.4542058901097032
        ]
      }
    },
    {
      "type": "Feature",
      "properties": {
        "norad_id": 30630,
        "name": "FENGYUN 1C DEB",
        "group": "fengyun-1c-debris",
        "lat": -75.68360860994713,
        "lon": -61.85495325063408,
        "alt_km": 843.3473416212528,
        "timestamp": "2025-12-10T11:33:53.662938+00:00",
        "meta_object_name": "FENGYUN 1C DEB",
        "meta_object_id": "1999-025ANM",
        "meta_epoch": "2025-12-09T23:15:02.966112",
        "meta_mean_motion": 14.223604,
        "meta_eccentricity": 0.0025985,
        "meta_inclination": 99.1728,
        "meta_ra_of_asc_node": 156.8943,
        "meta_arg_of_pericenter": 82.4169,
        "meta_mean_anomaly": 70.7143,
        "meta_ephemeris_type": 0,
        "meta_classification_type": "U",
        "meta_norad_cat_id": 30630,
        "meta_element_set_no": 999,
        "meta_rev_at_epoch": 97173,
        "meta_bstar": 0.0012266,
        "meta_mean_motion_dot": 2.692e-05,
        "meta_mean_motion_ddot": 0,
        "tle_line1": "1 30630U 99025ANM 25343.96878433  .00002692  00000+0  12266-2 0  9999",
        "tle_line2": "2 30630  99.1728 156.8943 0025985  82.4169  70.7143 14.22360400971736"
      },
      "geometry": {
        "type": "Point",
        "coordinates": [
          -61.85495325063408,
          -75.68360860994713
        ]
      }
    },
    {
      "type": "Feature",
      "properties": {
        "norad_id": 30632,
        "name": "FENGYUN 1C DEB",
        "group": "fengyun-1c-debris",
        "lat": 56.49346901489319,
        "lon": -50.75314976857302,
        "alt_km": 672.9607453112303,
        "timestamp": "2025-12-10T11:33:53.662948+00:00",
        "meta_object_name": "FENGYUN 1C DEB",
        "meta_object_id": "1999-025ANP",
        "meta_epoch": "2025-12-09T07:21:31.580928",
        "meta_mean_motion": 14.62544856,
        "meta_eccentricity": 0.0015204,
        "meta_inclination": 98.8238,
        "meta_ra_of_asc_node": 114.422,
        "meta_arg_of_pericenter": 179.6581,
        "meta_mean_anomaly": 238.447,
        "meta_ephemeris_type": 0,
        "meta_classification_type": "U",
        "meta_norad_cat_id": 30632,
        "meta_element_set_no": 999,
        "meta_rev_at_epoch": 97641,
        "meta_bstar": 0.0053173,
        "meta_mean_motion_dot": 0.00027077,
        "meta_mean_motion_ddot": 0,
        "tle_line1": "1 30632U 99025ANP 25343.30661552  .00027077  00000+0  53173-2 0  9997",
        "tle_line2": "2 30632  98.8238 114.4220 0015204 179.6581 238.4470 14.62544856976417"
      },
      "geometry": {
        "type": "Point",
        "coordinates": [
          -50.75314976857302,
          56.49346901489319
        ]
      }
    },
    {
      "type": "Feature",
      "properties": {
        "norad_id": 30633,
        "name": "FENGYUN 1C DEB",
        "group": "fengyun-1c-debris",
        "lat": 55.50678546956749,
        "lon": 42.096225682528406,
        "alt_km": 948.6684437005852,
        "timestamp": "2025-12-10T11:33:53.662958+00:00",
        "meta_object_name": "FENGYUN 1C DEB",
        "meta_object_id": "1999-025ANQ",
        "meta_epoch": "2025-12-09T14:34:27.481728",
        "meta_mean_motion": 14.04375509,
        "meta_eccentricity": 0.0130473,
        "meta_inclination": 98.4203,
        "meta_ra_of_asc_node": 208.8357,
        "meta_arg_of_pericenter": 269.1329,
        "meta_mean_anomaly": 115.9506,
        "meta_ephemeris_type": 0,
        "meta_classification_type": "U",
        "meta_norad_cat_id": 30633,
        "meta_element_set_no": 999,
        "meta_rev_at_epoch": 95848,
        "meta_bstar": 0.0013932,
        "meta_mean_motion_dot": 2.352e-05,
        "meta_mean_motion_ddot": 0,
        "tle_line1": "1 30633U 99025ANQ 25343.60726252  .00002352  00000+0  13932-2 0  9998",
        "tle_line2": "2 30633  98.4203 208.8357 0130473 269.1329 115.9506 14.04375509958485"
      },
      "geometry": {
        "type": "Point",
        "coordinates": [
          42.096225682528406,
          55.50678546956749
        ]
      }
    },
    {
      "type": "Feature",
      "properties": {
        "norad_id": 30634,
        "name": "FENGYUN 1C DEB",
        "group": "fengyun-1c-debris",
        "lat": 80.00378156698406,
        "lon": -101.03697476166185,
        "alt_km": 769.2012862400898,
        "timestamp": "2025-12-10T11:33:53.662968+00:00",
        "meta_object_name": "FENGYUN 1C DEB",
        "meta_object_id": "1999-025ANR",
        "meta_epoch": "2025-12-09T21:40:33.735072",
        "meta_mean_motion": 14.0967487,
        "meta_eccentricity": 0.0120688,
        "meta_inclination": 99.2927,
        "meta_ra_of_asc_node": 326.6314,
        "meta_arg_of_pericenter": 104.502,
        "meta_mean_anomaly": 286.9959,
        "meta_ephemeris_type": 0,
        "meta_classification_type": "U",
        "meta_norad_cat_id": 30634,
        "meta_element_set_no": 999,
        "meta_rev_at_epoch": 95577,
        "meta_bstar": 0.0027795,
        "meta_mean_motion_dot": 5.171e-05,
        "meta_mean_motion_ddot": 0,
        "tle_line1": "1 30634U 99025ANR 25343.90316823  .00005171  00000+0  27795-2 0  9995",
        "tle_line2": "2 30634  99.2927 326.6314 0120688 104.5020 286.9959 14.09674870955775"
      },
      "geometry": {
        "type": "Point",
        "coordinates": [
          -101.03697476166185,
          80.00378156698406
        ]
      }
    },
    {
      "type": "Feature",
      "properties": {
        "norad_id": 30639,
        "name": "FENGYUN 1C DEB",
        "group": "fengyun-1c-debris",
        "lat": -68.17977845689303,
        "lon": 119.74943401439509,
        "alt_km": 743.3663406886008,
        "timestamp": "2025-12-10T11:33:53.662978+00:00",
        "meta_object_name": "FENGYUN 1C DEB",
        "meta_object_id": "1999-025ANW",
        "meta_epoch": "2025-12-09T14:05:31.983072",
        "meta_mean_motion": 14.32249677,
        "meta_eccentricity": 0.0067075,
        "meta_inclination": 99.0188,
        "meta_ra_of_asc_node": 95.4487,
        "meta_arg_of_pericenter": 290.4121,
        "meta_mean_anomaly": 68.9867,
        "meta_ephemeris_type": 0,
        "meta_classification_type": "U",
        "meta_norad_cat_id": 30639,
        "meta_element_set_no": 999,
        "meta_rev_at_epoch": 96674,
        "meta_bstar": 0.004257,
        "meta_mean_motion_dot": 0.0001174,
        "meta_mean_motion_ddot": 0,
        "tle_line1": "1 30639U 99025ANW 25343.58717573  .00011740  00000+0  42570-2 0  9998",
        "tle_line2": "2 30639  99.0188  95.4487 0067075 290.4121  68.9867 14.32249677966740"
      },
      "geometry": {
        "type": "Point",
        "coordinates": [
          119.74943401439509,
          -68.17977845689303
        ]
      }
    },
    {
      "type": "Feature",
      "properties": {
        "norad_id": 30640,
        "name": "FENGYUN 1C DEB",
        "group": "fengyun-1c-debris",
        "lat": -29.828357629382516,
        "lon": -129.5909967349364,
        "alt_km": 862.4492987827798,
        "timestamp": "2025-12-10T11:33:53.662988+00:00",
        "meta_object_name": "FENGYUN 1C DEB",
        "meta_object_id": "1999-025ANX",
        "meta_epoch": "2025-12-10T03:55:50.191104",
        "meta_mean_motion": 14.14608582,
        "meta_eccentricity": 0.0081113,
        "meta_inclination": 99.0566,
        "meta_ra_of_asc_node": 55.3335,
        "meta_arg_of_pericenter": 107.8156,
        "meta_mean_anomaly": 282.3824,
        "meta_ephemeris_type": 0,
        "meta_classification_type": "U",
        "meta_norad_cat_id": 30640,
        "meta_element_set_no": 999,
        "meta_rev_at_epoch": 96409,
        "meta_bstar": 0.0018745,
        "meta_mean_motion_dot": 3.674e-05,
        "meta_mean_motion_ddot": 0,
        "tle_line1": "1 30640U 99025ANX 25344.16377536  .00003674  00000+0  18745-2 0  9990",
        "tle_line2": "2 30640  99.0566  55.3335 0081113 107.8156 282.3824 14.14608582964092"
      },
      "geometry": {
        "type": "Point",
        "coordinates": [
          -129.5909967349364,
          -29.828357629382516
        ]
      }
    }
  ]
}